{"fetched_at":"2026-03-29T02:12:04Z","count":15717,"tles":[{"name":"STARLINK-4800","line1":"1 53854U 22114AN  26087.60186745  .00000156  00000+0  27861-4 0  9994","line2":"2 53854  53.2174 199.4540 0001216  98.6874 261.4256 15.08846111195964","category":"Starlink"}]}